{"type": "FeatureCollection", "features": [ {"type": "Feature", "properties": {"norad_id": 34610, "name": "COSMOS 2251 DEB", "group": "cosmos-2251-debris", "lat": -70.6003232727042, "lon": -160.27937652789004, "alt_km": 902.6160063379921, "timestamp": "2025-12-17T09:00:17.542573+00:00", "meta": {"OBJECT_NAME": "COSMOS 2251 DEB", "OBJECT_ID": "1993-036WF", "EPOCH": "2025-12-16T19:43:22.866816", "MEAN_MOTION": 14.07083274, "ECCENTRICITY": 0.01805005, "INCLINATION": 74.0182, "RA_OF_ASC_NODE": 255.1605, "ARG_OF_PERICENTER": 24.866, "MEAN_ANOMALY": 336.104, "EPHEMERIS_TYPE": 0, "CLASSIFICATION_TYPE": "U", "NORAD_CAT_ID": 34610, "ELEMENT_SET_NO": 999, "REV_AT_EPOCH": 85617, "BSTAR": 0.0012903668, "MEAN_MOTION_DOT": 2.479e-05, "MEAN_MOTION_DDOT": 0}, "tle": {"line1": "1 34610U 93036WF  25350.82179244  .00002479  00000+0  12904-2 0  9996", "line2": "2 34610  74.0182 255.1605 0180500  24.8660 336.1040 14.07083274856172"}}, "geometry": {"type": "Point", "coordinates": [-160.27937652789004, -70.6003232727042]}}, {"type": "Feature", "properties": {"norad_id": 34611, "name": "COSMOS 2251 DEB", "group": "cosmos-2251-debris", "lat": -56.68521489634842, "lon": 66.20692937610204, "alt_km": 684.4202953336053, "timestamp": "2025-12-17T09:00:17.542582+00:00", "meta": {"OBJECT_NAME": "COSMOS 2251 DEB", "OBJECT_ID": "1993-036WG", "EPOCH": "2025-12-16T17:29:33.769248", "MEAN_MOTION": 14.69582283, "ECCENTRICITY": 0.00222724, "INCLINATION": 74.0534, "RA_OF_ASC_NODE": 93.2451, "ARG_OF_PERICENTER": 133.4274, "MEAN_ANOMALY": 348.1712, "EPHEMERIS_TYPE": 0, "CLASSIFICATION_TYPE": "U", "NORAD_CAT_ID": 34611, "ELEMENT_SET_NO": 999, "REV_AT_EPOCH": 88449, "BSTAR": 0.0011455971, "MEAN_MOTION_DOT": 6.807e-05, "MEAN_MOTION_DDOT": 0}, "tle": {"line1": "1 34611U 93036WG  25350.72886307  .00006807  00000+0  11456-2 0  9991", "line2": "2 34611  74.0534  93.2451 0022272 133.4274 348.1712 14.69582283884490"}}, "geometry": {"type": "Point", "coordinates": [66.20692937610204, -56.68521489634842]}}, {"type": "Feature", "properties": {"norad_id": 34613, "name": "COSMOS 2251 DEB", "group": "cosmos-2251-debris", "lat": 25.510490777462522, "lon": -81.97501461153699, "alt_km": 779.8614403826996, "timestamp": "2025-12-17T09:00:17.542593+00:00", "meta": {"OBJECT_NAME": "COSMOS 2251 DEB", "OBJECT_ID": "1993-036WJ", "EPOCH": "2025-12-16T00:58:31.243296", "MEAN_MOTION": 14.26454619, "ECCENTRICITY": 0.01102473, "INCLINATION": 73.9638, "RA_OF_ASC_NODE": 272.5587, "ARG_OF_PERICENTER": 103.5153, "MEAN_ANOMALY": 273.8209, "EPHEMERIS_TYPE": 0, "CLASSIFICATION_TYPE": "U", "NORAD_CAT_ID": 34613, "ELEMENT_SET_NO": 999, "REV_AT_EPOCH": 86510, "BSTAR": 0.00095440148, "MEAN_MOTION_DOT": 2.425e-05, "MEAN_MOTION_DDOT": 0}, "tle": {"line1": "1 34613U 93036WJ  25350.04063939  .00002425  00000+0  95440-3 0  9994", "line2": "2 34613  73.9638 272.5587 0110247 103.5153 273.8209 14.26454619865107"}}, "geometry": {"type": "Point", "coordinates": [-81.97501461153699, 25.510490777462522]}}, {"type": "Feature", "properties": {"norad_id": 34614, "name": "COSMOS 2251 DEB", "group": "cosmos-2251-debris", "lat": 24.610263565758725, "lon": 147.93690890130918, "alt_km": 974.5282320854467, "timestamp": "2025-12-17T09:00:17.542603+00:00", "meta": {"OBJECT_NAME": "COSMOS 2251 DEB", "OBJECT_ID": "1993-036WK", "EPOCH": "2025-12-16T00:21:28.707840", "MEAN_MOTION": 14.17601251, "ECCENTRICITY": 0.0198196, "INCLINATION": 73.8837, "RA_OF_ASC_NODE": 337.994, "ARG_OF_PERICENTER": 331.3985, "MEAN_ANOMALY": 83.6306, "EPHEMERIS_TYPE": 0, "CLASSIFICATION_TYPE": "U", "NORAD_CAT_ID": 34614, "ELEMENT_SET_NO": 999, "REV_AT_EPOCH": 84813, "BSTAR": 0.0047337499, "MEAN_MOTION_DOT": 0.00011666, "MEAN_MOTION_DDOT": 0}, "tle": {"line1": "1 34614U 93036WK  25350.01491560  .00011666  00000+0  47337-2 0  9995", "line2": "2 34614  73.8837 337.9940 0198196 331.3985  83.6306 14.17601251848135"}}, "geometry": {"type": "Point", "coordinates": [147.93690890130918, 24.610263565758725]}}, {"type": "Feature", "properties": {"norad_id": 34615, "name": "COSMOS 2251 DEB", "group": "cosmos-2251-debris", "lat": 34.1889976310747, "lon": -62.05731173445619, "alt_km": 1334.5705366932998, "timestamp": "2025-12-17T09:00:17.542613+00:00", "meta": {"OBJECT_NAME": "COSMOS 2251 DEB", "OBJECT_ID": "1993-036WL", "EPOCH": "2025-12-16T14:11:08.742624", "MEAN_MOTION": 13.52203855, "ECCENTRICITY": 0.04009084, "INCLINATION": 74.0049, "RA_OF_ASC_NODE": 287.9641, "ARG_OF_PERICENTER": 194.3854, "MEAN_ANOMALY": 347.6359, "EPHEMERIS_TYPE": 0, "CLASSIFICATION_TYPE": "U", "NORAD_CAT_ID": 34615, "ELEMENT_SET_NO": 999, "REV_AT_EPOCH": 82867, "BSTAR": 7.9709818e-05, "MEAN_MOTION_DOT": 6.6e-07, "MEAN_MOTION_DDOT": 0}, "tle": {"line1": "1 34615U 93036WL  25350.59107341  .00000066  00000+0  79710-4 0  9994", "line2": "2 34615  74.0049 287.9641 0400908 194.3854 347.6359 13.52203855828679"}}, "geometry": {"type": "Point", "coordinates": [-62.05731173445619, 34.1889976310747]}}, {"type": "Feature", "properties": {"norad_id": 34619, "name": "COSMOS 2251 DEB", "group": "cosmos-2251-debris", "lat": 20.755676127302458, "lon": -162.74320852561692, "alt_km": 685.2192417049373, "timestamp": "2025-12-17T09:00:17.542623+00:00", "meta": {"OBJECT_NAME": "COSMOS 2251 DEB", "OBJECT_ID": "1993-036WQ", "EPOCH": "2025-12-16T23:04:15.144960", "MEAN_MOTION": 14.64655687, "ECCENTRICITY": 0.00947549, "INCLINATION": 74.0431, "RA_OF_ASC_NODE": 191.8269, "ARG_OF_PERICENTER": 285.7109, "MEAN_ANOMALY": 73.3622, "EPHEMERIS_TYPE": 0, "CLASSIFICATION_TYPE": "U", "NORAD_CAT_ID": 34619, "ELEMENT_SET_NO": 999, "REV_AT_EPOCH": 89360, "BSTAR": 0.00018139745, "MEAN_MOTION_DOT": 9.95e-06, "MEAN_MOTION_DDOT": 0}, "tle": {"line1": "1 34619U 93036WQ  25350.96128640  .00000995  00000+0  18140-3 0  9994", "line2": "2 34619  74.0431 191.8269 0094754 285.7109  73.3622 14.64655687893602"}}, "geometry": {"type": "Point", "coordinates": [-162.74320852561692, 20.755676127302458]}}, {"type": "Feature", "properties": {"norad_id": 34620, "name": "COSMOS 2251 DEB", "group": "cosmos-2251-debris", "lat": 0.6722464165288691, "lon": -148.960684995738, "alt_km": 754.2630414200721, "timestamp": "2025-12-17T09:00:17.542633+00:00", "meta": {"OBJECT_NAME": "COSMOS 2251 DEB", "OBJECT_ID": "1993-036WR", "EPOCH": "2025-12-16T16:26:01.024512", "MEAN_MOTION": 14.49164426, "ECCENTRICITY": 0.00802291, "INCLINATION": 74.0516, "RA_OF_ASC_NODE": 212.1403, "ARG_OF_PERICENTER": 247.6666, "MEAN_ANOMALY": 111.5976, "EPHEMERIS_TYPE": 0, "CLASSIFICATION_TYPE": "U", "NORAD_CAT_ID": 34620, "ELEMENT_SET_NO": 999, "REV_AT_EPOCH": 86884, "BSTAR": 0.0014854903, "MEAN_MOTION_DOT": 5.865e-05, "MEAN_MOTION_DDOT": 0}, "tle": {"line1": "1 34620U 93036WR  25350.68473408  .00005865  00000+0  14855-2 0  9999", "line2": "2 34620  74.0516 212.1403 0080229 247.6666 111.5976 14.49164426868846"}}, "geometry": {"type": "Point", "coordinates": [-148.960684995738, 0.6722464165288691]}}, {"type": "Feature", "properties": {"norad_id": 34622, "name": "COSMOS 2251 DEB", "group": "cosmos-2251-debris", "lat": -73.18480540120879, "lon": -170.0796310996681, "alt_km": 856.9728739515485, "timestamp": "2025-12-17T09:00:17.542643+00:00", "meta": {"OBJECT_NAME": "COSMOS 2251 DEB", "OBJECT_ID": "1993-036WT", "EPOCH": "2025-12-16T07:08:22.882848", "MEAN_MOTION": 14.22061184, "ECCENTRICITY": 0.01045637, "INCLINATION": 74.0424, "RA_OF_ASC_NODE": 300.6279, "ARG_OF_PERICENTER": 22.238, "MEAN_ANOMALY": 128.3959, "EPHEMERIS_TYPE": 0, "CLASSIFICATION_TYPE": "U", "NORAD_CAT_ID": 34622, "ELEMENT_SET_NO": 999, "REV_AT_EPOCH": 86510, "BSTAR": 0.00087736577, "MEAN_MOTION_DOT": 2.027e-05, "MEAN_MOTION_DDOT": 0}, "tle": {"line1": "1 34622U 93036WT  25350.29748707  .00002027  00000+0  87737-3 0  9992", "line2": "2 34622  74.0424 300.6279 0104563  22.2380 128.3959 14.22061184865109"}}, "geometry": {"type": "Point", "coordinates": [-170.0796310996681, -73.18480540120879]}}, {"type": "Feature", "properties": {"norad_id": 34626, "name": "COSMOS 2251 DEB", "group": "cosmos-2251-debris", "lat": -25.942622348608417, "lon": 142.87977905855632, "alt_km": 677.4172622301894, "timestamp": "2025-12-17T09:00:17.542654+00:00", "meta": {"OBJECT_NAME": "COSMOS 2251 DEB", "OBJECT_ID": "1993-036WX", "EPOCH": "2025-12-16T22:33:08.102304", "MEAN_MOTION": 14.72248793, "ECCENTRICITY": 0.0026771, "INCLINATION": 74.0479, "RA_OF_ASC_NODE": 315.7274, "ARG_OF_PERICENTER": 42.6917, "MEAN_ANOMALY": 16.8147, "EPHEMERIS_TYPE": 0, "CLASSIFICATION_TYPE": "U", "NORAD_CAT_ID": 34626, "ELEMENT_SET_NO": 999, "REV_AT_EPOCH": 89206, "BSTAR": 0.00080627473, "MEAN_MOTION_DOT": 5.09e-05, "MEAN_MOTION_DDOT": 0}, "tle": {"line1": "1 34626U 93036WX  25350.93967711  .00005090  00000+0  80627-3 0  9999", "line2": "2 34626  74.0479 315.7274 0026771  42.6917  16.8147 14.72248793892064"}}, "geometry": {"type": "Point", "coordinates": [142.87977905855632, -25.942622348608417]}}, {"type": "Feature", "properties": {"norad_id": 34634, "name": "COSMOS 2251 DEB", "group": "cosmos-2251-debris", "lat": 72.69204420783478, "lon": 139.6128446786615, "alt_km": 674.4488353750321, "timestamp": "2025-12-17T09:00:17.542664+00:00", "meta": {"OBJECT_NAME": "COSMOS 2251 DEB", "OBJECT_ID": "1993-036XF", "EPOCH": "2025-12-16T13:27:19.630368", "MEAN_MOTION": 14.55669102, "ECCENTRICITY": 0.00439428, "INCLINATION": 74.0518, "RA_OF_ASC_NODE": 27.739, "ARG_OF_PERICENTER": 134.009, "MEAN_ANOMALY": 16.1842, "EPHEMERIS_TYPE": 0, "CLASSIFICATION_TYPE": "U", "NORAD_CAT_ID": 34634, "ELEMENT_SET_NO": 999, "REV_AT_EPOCH": 88837, "BSTAR": 0.00027750807, "MEAN_MOTION_DOT": 1.199e-05, "MEAN_MOTION_DDOT": 0}, "tle": {"line1": "1 34634U 93036XF  25350.56064387  .00001199  00000+0  27751-3 0  9999", "line2": "2 34634  74.0518  27.7390 0043942 134.0090  16.1842 14.55669102888379"}}, "geometry": {"type": "Point", "coordinates": [139.6128446786615, 72.69204420783478]}}]}